[{"OBJECT_NAME":"CSTP 1.1 (STC 1.1)","OBJECT_ID":"2023-091AN","EPOCH":"2026-03-09T23:25:54.009120","MEAN_MOTION":15.18093425,"ECCENTRICITY":0.00112554,"INCLINATION":97.5238,"RA_OF_ASC_NODE":128.3525,"ARG_OF_PERICENTER":94.9808,"MEAN_ANOMALY":265.2711,"EPHEMERIS_TYPE":0,"CLASSIFICATION_TYPE":"U","NORAD_CAT_ID":57202,"ELEMENT_SET_NO":999,"REV_AT_EPOCH":14890,"BSTAR":0.00035864099,"MEAN_MOTION_DOT":7.256e-5,"MEAN_MOTION_DDOT":0},{"OBJECT_NAME":"OBJECT B","OBJECT_ID":"2024-094B","EPOCH":"2026-03-09T23:16:02.635680","MEAN_MOTION":15.16281585,"ECCENTRICITY":0.00049641,"INCLINATION":97.3969,"RA_OF_ASC_NODE":142.4807,"ARG_OF_PERICENTER":78.7476,"MEAN_ANOMALY":281.4315,"EPHEMERIS_TYPE":0,"CLASSIFICATION_TYPE":"U","NORAD_CAT_ID":59806,"ELEMENT_SET_NO":999,"REV_AT_EPOCH":10012,"BSTAR":0.00045081306,"MEAN_MOTION_DOT":8.669e-5,"MEAN_MOTION_DDOT":0}]
